IRIDIUM 150             
1 43257U 18030J   25143.35142940  .00000042  00000+0  80159-5 0  9999
2 43257  86.3950  93.4483 0002584  85.7726 274.3765 14.34217680374306
IRIDIUM 143             
1 43258U 18030K   25143.40217038  .00000006  00000+0 -47978-5 0  9990
2 43258  86.3953  93.5048 0002679  83.6045 276.5456 14.34217541374255
IRIDIUM 161             
1 43478U 18047C   25142.83637659  .00000322  00000+0  89791-4 0  9991
2 43478  86.4491 251.5309 0002048  97.0354 263.1080 14.43266537368836
IRIDIUM 152             
1 43479U 18047D   25142.53766481 -.00000011  00000+0 -11079-4 0  9996
2 43479  86.3968 251.5165 0002104  99.0656 261.0778 14.34217445366490
IRIDIUM 147             
1 43480U 18047E   25143.38122984  .00000018  00000+0 -60985-6 0  9994
2 43480  86.3969 251.1622 0001988  92.9977 267.1446 14.34217524366615
IRIDIUM 110             
1 43481U 18047F   25142.82942336  .00000132  00000+0  40213-4 0  9990
2 43481  86.3969 251.4743 0001790 102.5997 257.5399 14.34217559366522
IRIDIUM 162             
1 43482U 18047G   25142.83007973  .00000317  00000+0  88243-4 0  9991
2 43482  86.4492 251.4292 0002080 102.8869 257.2565 14.43266623368821
IRIDIUM 160             
1 43569U 18061A   25143.19387214 -.00000034  00000+0 -19177-4 0  9990
2 43569  86.4007 219.7134 0001942  96.9320 263.2097 14.34217161357471
